Name,AlternateName,logo (URL angeben),Description,startDate,URL,"sameAs (Twitter, FB etc.)",license(s),openness,Email,Language(s),Audience,Topic,Provider_Id,Provider_Name,Provider_AlternateName,Provider_logo,Provider_Description,Provider_URL,"Provider_sameAs (Twitter, FB etc.)",Provider_AddressCountry,Provider_AddressCity,Provider_Region,Provider_StreetAddress,Provider_PostalCode,Provider_Email,Tag,COMMENTS:,Provider2_Name,Provider2_AlternateName,Provider2_logo,Provider2_Description,Provider2_URL,"Provider2_sameAs (Twitter, FB etc.)",Provider2_AddressCountry,Provider2_AddressCity,Provider2_Region,Provider2_StreetAddress,Provider2_PostalCode,Provider2_Email,Tag
Academic Earth,,https://upload.wikimedia.org/wikipedia/en/5/57/Academic_Earth.png,"Academic Earth is a website launched on March 24, 2009, by Richard Ludlow and co-founders Chris Bruner and Liam Pisano,which offers free online video lectures from universities such as UC Berkeley, UCLA, University of Michigan, Harvard, MIT, Princeton, Stanford, and Yale.",2008, http://academicearth.org/,"https://twitter.com/academicearth
https://www.facebook.com/academicearth
https://www.pinterest.com/academicearth/",Standard-YouTube-Lizenz,,contact@academicearth.org,en,"5, 6","0411, 022, 0511, 04, 0531, 06, 0311, 01, 07, 0412, 09, 0413, 0541, 0414, 0533, 0313, 0923, 031",,Consumer Media Network ,CMN,https://pbs.twimg.com/profile_images/1706437083/CMN.com-logo-twitter_400x400.png,CMN provides its school partners with a marketing infrastructure to select qualified students and deliver curriculum. ,http://www.cmn.com/,https://twitter.com/cmn,US,Houston,TX,"1001 McKinney Street, Suite 400",77002,info@cmn.com,,,,,,,,,,,,,,,
African Health OER Network,, http://www.oerafrica.org/sites/default/files/health_0.PNG,"The African Health OER Network seeks to enable participants to develop, adapt, and share health education resources to augment limited human and other resources in the health sector and impact positively on overall health provision in Africa and beyond.",2009, http://www.oerafrica.org/healthoer,"https://twitter.com/oerafrica
https://www.facebook.com/OER-Africa-158823421277/timeline/
https://www.youtube.com/user/oerafrica
https://www.flickr.com/photos/oerafrica","CC BY, CC BY-SA, CC BY-NC-SA, CC BY-NC-ND",,healthoer@oerafrica.com,en,"5, 6",091,706b5a70-77eb-11e5-9f9f-c48e8ff4ea31,"

University of Michigan","

Open.Michigan","


http://open.umich.edu/sites/oer.switchbackcms.com/files/oer_logo.gif","Open.Michigan is a University of Michigan initiative that enables faculty, students, and others to share their educational resources and research with the global learning community. ",http://open.umich.edu/,"https://twitter.com/open_michigan
https://www.facebook.com/pages/OpenMichigan/94137343500
https://www.flickr.com/photos/openmichigan
https://www.youtube.com/user/openmichigan
http://de.slideshare.net/openmichigan/",US,Ann Arbor,MI ,"Arbor Lakes Building, Rm. 2505",48105-3640,open.michigan@umich.edu,,,,,,,,,,,,,,,
Aljazeera creative commons repository,,https://ia600407.us.archive.org/18/items/aljazeeramedia/ajmedia.jpg,The Al Jazeera Creative Commons Repository hosts select broadcast quality media that Al Jazeera has released under various Creative Commons licenses. ,,"
https://archive.org/details/aljazeeramedia",,"The Al Jazeera Creative Commons Repository hosts select broadcast quality media that Al Jazeera has released under various Creative Commons licenses. Select Al Jazeera video footage is available for free to be downloaded, shared, remixed, subtitled and eventually rebroadcasted by users and TV stations across the world with acknowledgement to Al Jazeera.
CC BY-NC, CC BY-ND",,,en,"2, 3, 4, 5, 6
",03,b2be35d0-78a1-11e5-81fb-001999ac7927,Internet Archive,,http://internethalloffame.org/sites/default/files/timeline/archive-logo-1600.png,"Internet Archive is a non-profit library of millions of free books, movies, software, music, and more.",https://archive.org/,"https://twitter.com/internetarchive
https://www.facebook.com/internetnetarchive",US,San Francisco,CA,300 Funston Avenue,94118,info@archive.org,,,,,,,,,,,,,,,
Almae Matris Studiorum Campus,"AMS Campus
ALMA DL",,AMS Campus è il deposito istituzionale dei materiali didattici dell'Università di Bologna. Consente di accedere e consultare in modo agevole ed efficace i materiali didattici preparati dai docenti dell'Ateneo nell'ambito dei propri corsi.,2007, http://campus.unibo.it/,"https://www.facebook.com/Fondazione.Alma.Mater
https://twitter.com/FAMBologna","Could not find any license. Copyright of the author, non commercial. ",Many documents only for students.,,it,"5, 6","08, 0311, 0413, 0542, 051, 1014, 042, 07, 02, 023, 0912, 0313, 05, 0312",,Università di Bologna,,http://esocc2012.cs.unibo.it/images/logo_dip.jpg,"L'Università di Bologna ha adottato una struttura Multicampus per permettere la diffusione dell'offerta formativa e l'attivazione di una stabile attività di ricerca sul territorio, nell'intento di migliorare il funzionamento e la qualità della vita della comunità universitaria. A tale scopo sono stati costituiti i Campus di Cesena, Forlì, Ravenna e Rimini. Oltre ai Campus della Romagna, l'Università di Bologna ha anche una sede a Buenos Aires che offre in particolar modo master e corsi di alta formazione.",http://www.unibo.it/it,"https://twitter.com/UniboMagazine
https://www.youtube.com/user/UniBologna",IT,Bologna,Emilia-Romagna ,"Via Zamboni, 33",40126,aagg.webdesk@unibo.it,,Could not find licenses. Many documents for students only.,,,,,,,,,,,,,
Ariadne Finder,,http://www.ariadne-eu.org/sites/all/themes/Ariadne_template_new/images/finder_logo.png,"The ARIADNE Foundation is a not-for-profit association that aims to carry out basic and applied research that will improve creation, sharing and reuse of knowledge through the use of technology. They have created a standards-based technology infrastructure  that allows the publication and management of digital learning resources in an open and scalable way. ",1996,http://ariadne.grnet.gr/ariadne_finder/#/,https://twitter.com/Ariadne_eu,"CC BY-SA, Gliffy-Lizenz (?)",,,en,"2, 3, 4, 5, 6","08, 02,  04, 01, 07, 09, 06, 05, 10, 03","

",Ariadne Foundation,,,,,,European Union,,,,,,,Many contents of the repository were not found.,,,,,,,,,,,,,
Banco de iten,IAVE,http://cdn.iave.pt/bi/img/topBi.png,"O Banco de Itens permite consultar de forma rápida e funcional os itens disponíveis, efectuar ""testes de conhecimentos"" online e para os profesores, há ainda a possibilidade de criarem pastas personalizadas para ""Trabalhos de casa"", ""Fichas de avaliação"", entre outras funcionalidades. ",, http://bi.gave.min-edu.pt/,,CC BY-NC-ND,,,pt,"1, 2, 3","023, 0541, 0511, 0311, 0531",, Governo de Portugal. Ministro da Educação e Ciência,,http://www.escamarate.pt/SiteAssets/logo_MEC.png,"O Ministério da Educação e Ciência define, coordena, executa e avalia as políticas de educação, do ensino básico ao ensino superior, e da ciência. É também responsável pela qualificação e formação profissional.",http://www.portugal.gov.pt/pt/os-ministerios/ministerio-da-educacao-e-ciencia.aspx,"https://twitter.com/govpt
https://www.facebook.com/Governo-de-Portugal-548265471873786/
https://instagram.com/govpt/",PT,Lisboa,,"Av. 5 de Outubro, 107",1069-018,,,,,,,,,,,,,,,,
Banco de Objetos de Aprendizaje,"Repositorio de Objetos de Aprendiziaje
ROAP UN",http://4.bp.blogspot.com/-PbFZYwu6JR4/UU-U1RKtYNI/AAAAAAAAAFI/ENdvCU9n_pM/s1600/Sem+t%C3%ADtulo.png,"La DNIA apoya y fortalece los procesos de enseñanza-aprendizaje a la comunidad universitaria y a la sociedad, mediante el uso y apropiación de MTICs de manera oportuna, eficiente, responsable equitativa y pertinente.",,http://www.virtual.unal.edu.co/unvPortal/index.do,,,It is necessary to sign in (Moodle and Videochat),unvsoporte@unal.edu.co,es,"5, 6",,706aff80-77eb-11e5-9f9f-c48e8ff4ea31,Universidad nacional de Colombia,UNAL,https://www.gedcouncil.org/sites/default/files/content/UNAL%20logo..jpg,"The Universidad Nacional de Colombia (English: National University of Colombia), is a public, national, coeducational, research university, located primarily in Bogotá, Medellín, Manizales and Palmira, Colombia. Established in 1867 by an act of the Congress of Colombia, the university is the largest higher education institution of the country with more than 44,000 students, the largest number of graduated professionals per year,",http://unal.edu.co/,"https://www.facebook.com/UNIVERSIDAD-NACIONAL-DE-COLOMBIA-37021466200
https://twitter.com/unimedios
https://www.linkedin.com/edu/universidad-nacional-de-colombia-11612
https://instagram.com/explore/locations/235252960/
https://www.pinterest.com/unbogota/",CO,Bogotá,D.C.,"Carrera 45 # 26-85
Edif. Uriel Gutiérrez",,mediosdigitales@unal.edu.co,,,,,,,,,,,,,,,
Banco Internacional de Objetos Educacionais,,http://websmed.portoalegre.rs.gov.br/escolas/larry/imagens/objeduc.jpg,"The Educational Repository is an online service for collecting, preserving and providing access to data of research publications and digital content worldwide produced. ",, http://objetoseducacionais2.mec.gov.br,,"The collection available in this web address (http://objetoseducacionais.mec.gov.br ) is consisted either of resources which are part of the Public Domain or that have been negotiated and are available for viewing, copying, distribution or translation - for those which have available sources. Such a license is partial, free and non-exclusive. Therefore, the author will continue to use their productions freely, being able to even negotiate them commercially, once the Ministry of Education does not have exclusive rights to the works. The users are expressly forbidden to use any Digital Resource available at this web site for any commercial purposes. We reaffirm the content in this repository is strictly for educational purposes.The International Database of Educational Objects teams have redoubled their efforts to assure no copyright rule be broken. However, if by any chance a file happens to be violating any copyright related to its object, such as versions, translations, exhibitions etc. Click here and inform the Repository team so that this situation be in conformity with the Bank's procedures.

Autorização por e-mail, dada pelo autor ou seu representante diretamente ao Ministério da Educação - MEC que permite: copiar, distribuir e exibir as obras, sob as seguintes condições: deve-se dar crédito ao autor original, da forma especificada pelo autor ou licenciante; é proibido utilizar esta obra com finalidades comerciais e subscrevê-la - traduzir e criar obras derivadas -; para cada novo uso ou distribuição, deve-se deixar claras as licenças de uso desta obra.

CC BY - SA

","

Every material has a different licence, most of them do refer to the MEC.",,en,"0, 1, 2, 3, 4, 5","021, 023, 0231-ja0541, 0215, 0511, 091, 08, 05, 022, 03, 07
",,"Ministry of Education Brazil
in partnership with the Ministry of Science and Technology",MEC,http://bananeirasonline.com/site/wp-content/uploads/2013/02/image1.jpg,"The Ministry of Education (Portuguese: Ministério da Educação), MEC, is a Brazilian government ministry.
The functions of this ministry is to elaborate a national education policy in early childhood education, elementary education, secondary education, higher education, youth and adult education, among other teachings (professional, special and distance education) Taking their proper decisions so that these are met.",http://www.mec.gov.br/,"https://twitter.com/mec_comunicacao
https://www.youtube.com/user/ministeriodaeducacao
https://www.facebook.com/ministeriodaeducacao/timeline/
https://instagram.com/mineducacao",BR,Brasilia,,Esplanada Ministérios,s/n Bl L Anexo I,,,,,,,,,,,,,,,,
ChemCollective,Formerly known as the irYdium Project,http://4.bp.blogspot.com/-ozPTpLLSJmc/UendP6OP_OI/AAAAAAAAbus/gCfGEmthTes/s1600/Screen+Shot+2013-07-19+at+8.23.13+PM.png,"Online Resources for Teaching and Learning Chemistry:
The ChemCollective is a collection of virtual labs, scenario-based learning activities, tutorials, and concept tests. Teachers can use our content for pre-labs, for alternatives to textbook homework, and for in-class activities for individuals or teams. Students can review and learn chemistry concepts using our virtual labs, simulations, and tutorials.",2000, http://www.chemcollective.org/,"https://twitter.com/chemcollective
https://www.youtube.com/watch?v=KZYlEcdAg9s",The Chemistry Collective project is currently funded by the National Science Foundation. Our software is available free of charge to all educators and students under the creative commons license (Attribution-NonCommercial-NoDerivs CC BY-NC-ND). Instructors and students can use our materials on the web and on their computers immediately without any licensing requirements. We are very open to collaborations and the re-use of our materials. Please contact us for any uses that go beyond the above creative commons license.,,info@chemcollective.org,en,"2, 3, 4, 5, 6",0531,,Carnegie Mellon University,CMU,"
http://www.cmu.edu/marcom/brand-guidelines/images/cmu_logo_stack_red.jpg","Carnegie Mellon University (CMU) is a global research university with more than 13,200 students, 100,000 alumni and 5,000 faculty and staff. 

CMU has been a birthplace of innovation since its founding in 1900.

Today, we are a global leader bringing groundbreaking ideas to market and creating successful startup businesses.

Our award-winning faculty members are renowned for working closely with students to solve major scientiﬁc, technological and societal challenges. We put a strong emphasis on creating things—from art to robots. Our students are recruited by some of the world’s most innovative companies.

We have campuses in Pittsburgh, Qatar and Silicon Valley, and degree-granting programs around the world, including Africa, Asia, Australia, Europe and Latin America.",http://www.cmu.edu,http://www.facebook.com/carnegiemellonu,US,Pittsburgh,Pennsylvania,"	

Department of Chemistry

4400 Fifth Avenue",15213,web-feedback@andrew.cmu.edu,,,,,,,,,,,,,,,
Commonwealth of Learning,COL,https://www.col.org/sites/default/files/styles/image_responsive/public/COL_Logo_tagline%281%29_0.png?itok=x6mfbBpa,"The Commonwealth of Learning (COL) is an intergovernmental organisation of the Commonwealth of Nations headquartered in Vancouver, British Columbia, Canada. Founded at the 1987 Commonwealth Heads of Government Meeting (CHOGM)[1] and inaugurated in 1988,[2] COL's mandate is to promote and develop the use of open learning and distance education knowledge, resources and technologies throughout the Commonwealth's 54 member states.",1987, http://www.col.org/,"https://www.facebook.com/COL4D
https://twitter.com/COL4D
https://www.linkedin.com/company/commonwealth-of-learning
https://www.youtube.com/user/comlearn
",missing,,info@col.org,en,"4, 5, 6","0314, 0311, 0413, 08, 09, 091, 01, 07, 0712, 073, 05, 0511, 041, 0922, 1021, 0222, 06, 023, 002


",,Government of Canada,,,,https://upload.wikimedia.org/wikipedia/commons/thumb/4/42/Government_of_Canada_logo.svg/2000px-Government_of_Canada_logo.svg.png,"https://www.facebook.com/4CdnDiv4DivCA
https://twitter.com/AAFC_Canada",CA,Burnaby,British Columbia,"4710 Kingsway, Suite 2500",V5H 4M2,,,Es handelt sich um eine Organisation,,,,,,,,,,,,,
Consortium for the Advancement of Undergraduate Statistics Education,CAUSE,https://www.causeweb.org/sites/default/files/images/banner.png,"Arising from a strategic initiative of the American Statistical Association, CAUSE is a national organization whose mission is to support and advance undergraduate statistics education, in four target areas: resources, professional development, outreach, and research. ",, http://www.causeweb.org,https://www.facebook.com/groups/428798650521041,CC BY-NC-SA,,dkp13@psu.edu,en,"0, 1, 2, 3, 4, 5, 6","02, 04, 01, 07, 09, 06, 05, 104, 03",,National Science Foundation,NSF,http://www.nsf.gov/news/mmg/media/images/nsf_logo_f_272f4777-f5c4-4e49-8a2e-468e89b64b61_f.jpg,"The National Science Foundation (NSF) is an independent federal agency created by Congress in 1950 ""to promote the progress of science; to advance the national health, prosperity, and welfare; to secure the national defense…"" With an annual budget of $7.3 billion (FY 2015), we are the funding source for approximately 24 percent of all federally supported basic research conducted by America's colleges and universities. In many fields such as mathematics, computer science and the social sciences, NSF is the major source of federal backing.",http://www.nsf.gov/,"https://www.facebook.com/US.NSF
https://twitter.com/NSF
http://www.linkedin.com/company/national-science-foundation
https://www.youtube.com/user/VideosatNSF
https://www.flickr.com/photos/nsf_beta/
http://nationalsciencefoundation.tumblr.com/",US,Arlington,VA,4201 Wilson Boulevard,22230,,,,,,,,,,,,,,,,
Culturally Authentic Pictorial Lexicon,CAPL,https://upload.wikimedia.org/wikipedia/en/3/3b/CAPL_logo.png,The CAPL project seeks to explore this idea through a collection of authentic photographs arranged by language and context.,2003, http://capl.washjeff.edu,https://www.facebook.com/pages/CAPL-Culturally-Authentic-Pictorial-Lexicon/117591790865,"CC BY-NC-SA
All images found on this site are licensed under a Creative Commons 3.0 US License.  If you use images from this site, please cite capl@washjeff.edu as your source.",,capl@washjeff.edu,en,"2, 3, 4, 5, 6 informal learning","0231, 0231-en. 0231-uk",,U.S. Department of Education,ED,http://www.ed.gov/edblogs/wp-content/uploads/2014/07/ed-icon.gif,Our mission is to promote student achievement and preparation for global competitiveness by fostering educational excellence and ensuring equal access.,http://www.ed.gov/,"https://www.facebook.com/SecretaryArneDuncan
https://twitter.com/usedgov
https://www.youtube.com/user/usedgov
https://plus.google.com/+usdepartmentofeducation/posts",US,Washington D.C.,DC,"400 Maryland Avenue, SW",20202,,,,,,,,,,,,,,,,
Curriki,,http://ionutmaxim.com/site/wp-content/uploads/2014/10/curriki-logo1.jpg,"Curriki is an online, free, open education service. Curriki is structured as a nonprofit organization to provide open educational resources primarily in support of K-12 education. Curricula and instructional materials are available at the Curriki website to teachers, professional educators, students, lifelong learners, and parents.",2004, http://welcome.curriki.org/,"https://twitter.com/curriki
https://www.facebook.com/pages/Curriki/134427817464
https://www.pinterest.com/curriki/
https://www.youtube.com/watch?v=3bC5PlsTgKw","CC BY, CC BY-NC, CC BY-NC-ND, CC BY-NC-SA",,webmaster@curriki.org,en,"0, 1, 2, 3, 4, 5,  6","08, 02, 0231-fat, 01, 07, 00, 091, 06, 05, 10, 03",,Curriki,,,,,,US,Cupertino,CA,"20660 Stevens Creek Boulevard, #332",95014,webmaster@curriki.org,Course planning for teachers,"Curriki is a non-profit 501(c)(3) corporation, so they seem to not have a Provider, address of Curriki weitten down.",,,,,,,,,,,,,
"Desarrolla, Aprende y Reutiliza",DAR,http://catedra.ruv.itesm.mx/image/logodar2.png,"El programa DAR (Desarrolla, Aprende y Reutiliza) es una iniciativa que aborda los desafíos inherentes de la formación de investigadores educativos. Busca apoyar la enseñanza e investigación mediante la creación de acceso a una colección creciente de acceso abierto de recursos y materiales digitales producidos y desarrollados por la comunidad académica.",, http://catedra.ruv.itesm.mx/,,"CC BY, CC BY-NC-SA, CC BY-NC-ND",,,es,Teacher's Guide,"04, 01, 07, 05, 102, 103",,"Tecnológico de Monterrey, Escuela de Graduados en Educación",EGE,http://www.ruv.itesm.mx/convenio/catedra/naturaleza/imagenes/banner1.jpg,"The Monterrey Institute of Technology and Higher Education (in Spanish: Instituto Tecnológico y de Estudios Superiores de Monterrey, ITESM) commonly shortened as Monterrey Institute of Technology (Tecnológico de Monterrey) or Monterrey Tech (Tec de Monterrey) is one of the largest private, nonsectarian and coeducational multi-campus universities in Latin America with over 90,000 students at the high school, undergraduate, and postgraduate levels.",http://www.tecvirtual.mx/portal/promocion/qs/eventos_ege/investigacion/,"https://twitter.com/TecdeMonterrey
https://www.facebook.com/TecdeMonterrey
https://plus.google.com/u/0/+TecdeMonterrey/videos
https://www.youtube.com/user/ITESMedu
http://www.linkedin.com/company/itesm",MX,Monterrey,Nuevo León,Ave. Eugenio Garza Sada 2501 Sur Col. Tecnológico ,C.P. 64849,,Course planning for teachers,"Muchas veces solamente es posible encontrar ""sin registros"" (29.09.2015)",,,,,,,,,,,,,
Digiref,,https://digitalkompetens.files.wordpress.com/2008/03/digiref.jpg,"I Digiref hittar du alltså digitala lärobjekt, multimedia för undervisning som bl a lärare skapat och önskar dela med sig av. Här finns även digitalt referensmaterial och undervisningsmoduler från bibliotek kring informationssökning för studier/forskning. ",2007, http://www.digiref.se/index.php,,"CC BY, CC BY-SA, CC BY-ND, CC BY-NC-ND",,webmaster@digiref.se,sv,,"0222, 0311, 0223, 021, 0232, 0541, 0912, 1031, 0215, 05, 0221",,,,,,,,SE,,,,,,,"E-Mail was sent to clarify the provider and audience (29.09.2015), Mailing address is apparently wrong -> but could not find another one",,,,,,,,,,,,,
Digital Library for Earth System Education,DLESE,http://climate.nasa.gov/images/logo2.jpg,"The Digital Library for Earth System Education (DLESE) is a distributed community effort involving educators, students, and scientists working together to improve the quality, quantity, and efficiency of teaching and learning about the Earth system at all levels.
",, http://www.dlese.org/library/,,"The user is granted the right to use the Site for non-commercial, non-profit  research, or educational purposes only, without any fee or cost. In the event you breach these Terms of Use or any Material-specific terms or you infringe any copyrights, UCAR may pursue any and all legal and equitable remedies available to it, although UCAR is under no legal obligation to do so.",,support@dlese.org,en,"1, 2, 3, 4, 5, 6","05, 071, 0541",,National Center for Atmospheric Research Library,NCAR/UCAR Library,https://www2.ucar.edu/sites/default/files/images/logos/logo-ncar-spellout-305.jpg,"The NCAR Library serves and supports Atmospheric, Solar and Earth scientists and their research at NCAR and throughout the broader UCAR community.",https://library.ucar.edu/,"https://www.facebook.com/AtmosNews
https://twitter.com/atmosnews
https://www.youtube.com/user/ncarucar",US,Boulder,CO,3450 Mitchell Lane,80301,ipinfo@ucar.edu,,,,,,,,,,,,,,,
Economics Network Online Learning and Teaching Materials,EN,http://www.economicsnetwork.ac.uk/nav/logo2013.png,"

The EN provide publications, events, and other resources to support university teachers of economics throughout the UK and worldwide.
",2012, http://www.economicsnetwork.ac.uk/links/othertl.htm,https://twitter.com/economics_net,"Standard Youtube Licence
Copyright for papers included in the Discussion Papers remains with the authors, who are free to publish their papers elsewhere at any time.

Except where stated, resources on this page are available under a Creative Commons by-nc licence.",,econ-network@bristol.ac.uk,en,"5, 6","0311, 054, 05",,University of Bristol,,http://www.bristol.ac.uk/media-library/sites/public-relations/images/logos/logo-screen.gif,"The School of Economics, Finance and Management at the University of Bristol is made up of three distinct departments, Economics, Accounting and Finance, and Management.  Each of these departments produces world leading research and contributing towards teaching at both undergraduate and postgraduate levels.

The University's mission is ""to pursue and share knowledge and understanding, both for their own sake and to help individuals and society fulfil their potential;"". Teaching is a core aspect of the statement and we take that very seriously. For all our staff excellence in teaching is a key element of their role.  Courses are given by leading researchers who incorporate the very latest ideas into their teaching, and by our dedicated teaching staff. The result is a lively and challenging educational environment.",http://www.bristol.ac.uk/,"https://twitter.com/bristoluni
https://www.facebook.com/bristoluniversity
https://www.youtube.com/user/UniversityOfBristol
https://www.linkedin.com/edu/school?id=12689
https://www.flickr.com/photos/bristoluniversity",GB,Bristol,South West England,"

Senate House, Tyndall Avenue",BS8 1TH,econ-network@bristol.ac.uk,Course planning for teachers,,,,,,,,,,,,,,
Edu Fi,,,"Edu.fi is a Board of Education hosted web service to support teaching and learning and their development. This Site's specific objective is to support ICT educational use of ICT.
",, http://www.edu.fi,https://www.youtube.com/user/OpetushallitusEDUfi,,,edufi@oph.fi,"fi, sv","1, 2, 3, 4","06, 0613, 0232, 023, 054, 05, 0222, 091, 0215, 021, 0312",,Finnish National Board of Education,FNBE,http://lsl.eun.org/image/image_gallery?uuid=32ccc367-5b41-4fa5-8765-c7368c90c407&groupId=44572&t=1352471932252,"Finnish National Board of Education is a national development agency. FNBE is responsible for the development of pre-primary, basic, general upper secondary, vocational upper secondary and adult education. FNBE is subordinate to the Ministry of Education and Culture and its tasks and organisation are set in the legislation.",http://www.oph.fi/english,"https://www.facebook.com/opetushallitus
https://twitter.com/Opetushallitus
https://www.youtube.com/user/Opetushallitus",FI,Helsinki,Uusimaa,Hakaniemenranta 6,00531,opetushallitus@oph.fi,Course planning for teachers,"Tried to contact via E-Mail (to ask about their licences), but the adresses do not seem to work! Last check 29.09.2015; E-Mail was send to Provider on 05.10.2015",,,,,,,,,,,,,
Educar Chile,,http://crucigramasinteractivos.cl/wp-content/uploads/2014/04/educarchile_logo.jpg,"Los contenidos que periódicamente se publican en educarchile tiene por finalidad brindar al usuario todo tipo de información relacionada con la educación, incluyendo entre otras cosas, artículos, noticias, planificaciones de clases, publicaciones de interés y otros contenidos que estén relacionados con la educación en todos sus niveles.
Apoya a las clases de los docentes, ofrece materiales para los estudiantes y apoya a las tareas.",2013, http://www.educarchile.cl,"https://www.facebook.com/portal.educarchile
https://twitter.com/educarchile
https://plus.google.com/+educarchile/posts
https://www.youtube.com/user/educarchile
https://www.pinterest.com/educarchile/","El usuario se obliga a:
1 Usar los contenidos de forma diligente, correcta y lícita.
2 No reproducir, copiar, distribuir, transformar o modificar, poner a disposición, arrendar o comunicar al público los contenidos a menos que se cuente con la autorización expresa del titular de los correspondientes derechos.
3 No suprimir, eludir, o manipular el ""copyright"" y demás datos identificatorios de los derechos de educarchile o de sus titulares incorporados a los contenidos, así como los dispositivos técnicos de protección, los identificadores digitales o cualesquiera sean los mecanismos de información que pudieran contener los contenidos o sobre la gestión de derechos.
4 No emplear los contenidos y, en particular, la información de cualquier otra clase obtenida a través de educarchile o de los servicios, para emitir publicidad de cualquier tipo y bajo cualquier formato, en Chile o en el extranjero.
educarchile no será responsable por el uso indebido que hagan los usuarios del contenido de educarchile.
El usuario acepta que la publicidad de terceros que aparezca en la pantalla es parte inseparable del sitio de educarchile.
educarchile no garantiza la veracidad de dicha publicidad y no será responsable por la correspondencia o contratos que el usuario celebre con terceros. ",,,es,"0, 1, 2, 3, 4, 5, 6",,,Ministerio de Educación Chile,mineduc,https://upload.wikimedia.org/wikipedia/commons/4/4c/Logo_del_Ministerio_de_Educaci%C3%B3n_%28Chile%29.jpg,"El Ministerio de Educación de Chile es el órgano rector del Estado encargado de fomentar el desarrollo de la educación en todos sus niveles, a través de una educación humanista democrática, de excelencia y abierta al mundo en todos los niveles de enseñanza; estimular la investigación científica y tecnológica y la creación artística, y la protección e incremento del patrimonio cultural de la Nación. Del mismo modo, esta institución es la llamada a velar por los derechos de todos los estudiantes, tanto de establecimientos públicos como privados.",http://www.mineduc.cl/,"https://www.facebook.com/mineduc
https://twitter.com/mineduc
https://www.flickr.com/photos/mineduc
https://www.youtube.com/user/mineducchile
https://instagram.com/escuelasdechile",CL,Santiago,Región Metropolitana,Av Libertador Bernardo O'Higgins 1371,,,,,,,,,,,,,,,,,
Eduteka,,http://www.eduteka.org/images/logoEDTK30.png,"
EDUTEKA (www.eduteka.org) is a free Spanish-language web portal for educators which is updated every month and run by the Gabriel Piedrahita Uribe Foundation (Fundación Gabriel Piedrahita Uribe (FGPU), in Spanish) based in Cali, Colombia.",2001, http://www.eduteka.org/,"https://www.facebook.com/Eduteka-119446671447928/timeline/
https://twitter.com/eduteka
https://www.youtube.com/user/edutekaoficials","La FGPU publica materiales en Eduteka únicamente con propósitos de formación, información y orientación. Estos contenidos (sin perjuicio de los derechos de autor de cada uno de los respectivos autores) se ofrecen bajo dos licencias “Creative Commons” (versión 3.0).
Licencia 1: CC BY - NC - ND
Licencia 2: CC BY - NC - SA
Los usuarios están en libertad de copiar, distribuir y comunicar públicamente los contenidos de este sitio bajo las siguientes condiciones:
Deben reconocer los créditos tanto a Eduteka como a los autores y a las fuentes originales de los materiales y no pueden utilizar los contenidos de Eduteka con fines comerciales.
Además, cuando se trate de recursos propios de Eduteka  (Licencia 2), pueden alterar, transformar o generar obras derivadas a partir de dichos recursos. Los documentos que se publican bajo la Licencia 1, no pueden ser objeto de alteración, transformación o generación de obras derivadas.
Para hacer uso de los contenidos de Eduteka bajo condiciones diferentes a las anteriores, se debe solicitar permiso expreso y por escrito de la Fundación Gabriel Piedrahita Uribe.
",,directora@efuteka.org,es,"1, 2, 3","021, 0611, 05, 07, 03, 0221, 022, 06, 023, 0541, 0111, 1014,",,Gabriel Piedrahita Uribe Foundation,FGPU,http://www.eduteka.org/fgpu/wp-content/uploads/2011/09/Logo_Fundacion_text.png,"The Foundation is a nonprofit organization dedicated to improving the quality of primary and secondary education in Colombia and Latin America through the use of Information and Communication Technologies (ICTs). The Foundation is based in Cali, and is inspired by the life of Gabriel Piedrahita, who tragically lost his life in an airplane crash in 1995, at the age of 22. 
The Gabriel Piedrahita Foundation believes that in the Knowledge Society of the twenty-first century, the educational system must endow youths with a new set of capabilities, many of them related to the rapid development of ICTs. It also believes that these ICT can revolutionize learning processes, through access to the abundant free material available on the World Wide Web, and through the enrichment of learning environments in schools. Based on these premises, The Gabriel Piedrahita Foundation promotes the improvement of primary and secondary education for disvantaged and underserved children in Colombia and spanish speaking countries through the effective integration and use of Information and Communication Technologies in the curriculum.",,,CO,Cali,Valle del Cauca,Carrera 100 16-20 ,,,Course planning for teachers,"Wrong picture of CC licence (here ""Licencia 1"" is CC BY - NC - ND and not CC BY - NC - SA) http://www.eduteka.org/quienes.php3#contacto
",,,,,,,,,,,,,
Everything Maths,,http://siyavula.com/wp-content/uploads/2013/12/everything-logo2.png,Technology-powered learning for Maths and Science,2011, http://everythingmaths.co.za/,"https://twitter.com/Siyavula
https://www.facebook.com/siyavula","Except where otherwise noted, this site is covered by a closed copyright license. All rights reserved.",You have to sign uo to get the information,,"en, af",3,05,95ac0fbe-2fb6-11e5-9361-001999ac7927,Siyavula,,http://www.everythingmaths.co.za/++theme++emas.theme/images/logo.png,Harnessing technology and openness to revolutionise education,http://www.siyavula.com/,,ZA,Cape Town,Westkap,"Siyavula Education, 27 Buitenkant St",,,Teachers Guide,You have to sign up to get the information,,,,,,,,,,,,,
First World War Poetry Digital Archive,,https://digital1418.files.wordpress.com/2014/02/ww1-poetry-archive.jpg?w=240&h=57,First World War Poetry Digital Archive (based at the University of Oxford) made available to the general public a wide array of archival resources relating to literature of the First World War. ,2008, http://www.oucs.ox.ac.uk/ww1lit/,"https://twitter.com/intent/follow?screen_name=ww1lit
https://www.facebook.com/The-First-World-War-Poetry-Digital-Archive-47396039756/timeline/","Anyone is entitled to use the material for Educational Purposes (means for the purpose of education, teaching, distance learning, private study and/or research) but not for Commercial Purposes (i.e. selling or reselling the material or using it for any commercial gain). Users may:

    copy items and save them;
    print the items;
    excerpt, annotate, aggregate and modify the items;

    use the items in virtual learning environments, managed learning environments and in any material to be used in the course of instruction. Course and study packs in non-electronic non-print perceptible form, such as Braille, may also be created;
    distribute, communicate and make available the items, to the public in any form and in any media whether now known or hereafter created as long as it is for educational non-commercial purposes;
    publicly display or publicly perform parts of the Licensed Work as part of a presentation at a seminar, conference, or workshop, or other such similar activity;
    deposit the items or parts in any kind or type of repository.

All the material presented here is made available under the JISC Model Licence and the HEFCE Licence for the digitization projects running under the JISC Digitisation Programme Phase 2.

Every effort has been made to clear copyright on all the material used. Should anyone know of any oversight please contact the site maintainers immediately.",,,en,"0, 1, 2, 3, 4, 5, 6",0232,,University of Oxford,,http://www.bsg.ox.ac.uk/sites/www.bsg.ox.ac.uk/themes/bsg/css/images/logos/ox-logo-square.png,"Oxford is a world-leading centre of learning, teaching and research and the oldest university in the English-speaking world.",http://www.ox.ac.uk/,"https://www.youtube.com/user/oxford
https://www.facebook.com/the.university.of.oxford
https://twitter.com/uniofoxford
https://www.linkedin.com/company/4477?trk=prof-exp-company-name
https://instagram.com/oxford_uni/
https://plus.google.com/100268566132168292975/videos",GB,Oxford,Oxfordshire,Wellington Square,OX1 2JD,,,,,,,,,,,,,,,,
FREIburger Multimedia Object Repository,FREIMORE,http://freimore.uni-freiburg.de/templates/master/template_mycoresample-1/IMAGES/freimore.gif," FREIMORE ist ein Repository zur Speicherung, Suche und Präsentation von Multimediaobjekten. Dahinter steht eine Datenbank, eine Technik zum kontinuierlichen Ausgeben ('streamen') von mehrfach angeforderten Objekten und eine Anwendungssoftware zum Bereitstellen aller notwendigen Funktionen. 
FREIMORE ist als zentrales Portal der Universität Freiburg für Forschung, Lehre und Lernen gedacht. Alle Fachbereiche können dort Multimediaobjekte ablegen und sie für einen begrenzten oder unbegrenzten Zugang bereitstellen. ",2001, http://freimore.uni-freiburg.de/,,"Rechte: alles frei
 / keine",,freimore@rz.uni-freiburg.de ,de,"0, 1, 2, 3, 4, 5, 6","021, 0214, 0232",,Universität Freiburg,Albert-Ludwigs-Universität Freiburg,https://www.uni-freiburg.de/,"Already a comprehensive university at its founding in 1457, the University of Freiburg still offers undergraduate and graduate studies as well as professorial qualification in all important disciplines today: the humanities, natural and engineering sciences, medicine, law, and theology. This diversity also provides an ideal environment for innovative interdisciplinary studies.",https://www.uni-freiburg.de/,"https://www.facebook.com/presseunifreiburg
https://twitter.com/PresseUniFR
https://instagram.com/unifreiburg/",DE,Freiburg,,Friedrichstr. 39,79098,info@verwaltung.uni-freiburg.de,,,,,,,,,,,,,,,
Geoscience Data Repository,,https://upload.wikimedia.org/wikipedia/en/8/84/NRCAN_Logo.png,Geoscience Data Repository for Geophysical Data,,http://www.nrcan.gc.ca/earth-sciences/resources/data/10788,"https://twitter.com/NRCan
https://www.youtube.com/user/NaturalResourcesCa
",Open Government Licence - Canada (http://open.canada.ca/en/open-government-licence-canada),,STIP/PSST@NRCan-RNCan.gc.ca,"en, fr",,"0522, 05",,Government of Canada,,https://www.canadianopendataexperience.ca/inc/img/canada-logo.png,"The Government of Canada (French: Gouvernement du Canada), formally Her Majesty's Government (French: Gouvernement de Sa Majesté), is the federal administration of Canada. In Canadian English, the term can mean either the collective set of institutions or specifically the Queen-in-Council. In both senses, the construct was established at Confederation—through the Constitution Act, 1867—as a federal constitutional monarchy, wherein the Canadian Crown acts as the core, or ""the most basic building block,"" of its Westminster-style parliamentary democracy. The Crown is thus the foundation of the executive, legislative, and judicial branches of the Canadian government. Further elements of governance are outlined in the rest of the Canadian constitution, which includes written statutes, court rulings, and unwritten conventions developed over centuries.",http://www.canada.ca/en/,"https://www.facebook.com/CanadaGovPol
https://twitter.com/canada
https://de.pinterest.com/kindersurprise1/canadian-government/",CA,Ottawa,National Capital Region,2323 Riverside Dr,ON K1H,,,There do exist different addresses for buildings of the government.,,,,,,,,,,,,,
Hum Box,,http://www.english.heacademy.ac.uk/scripts/file.php?image_id=3,"The HumBox website was created by the HumBox project. This project was part of a wider Open Educational Resources initiative funded by the JISC (Joint Information Systems Committee) and the HEA, to showcase UK Higher Education by encouraging teachers within HE institutions to publish excellent teaching and learning resources openly on the web.",2008, http://humbox.ac.uk/,,"CC BY, CC BY-ND, CC BY-NC-SA",,humbox@soton.ac.uk,en,,"022, 02311-nl, 0231-uk",,"EdShare (University of Southampton, School of Electronics and Computer Science)",,,"EdShare is a set of extentions to EPrints which create rich content teaching and learning repositories with a Web 2.0 twist. The goal of the software is to make it trivial to create, share and remix everyday teaching materials in a collaborative environment. Both EdShare and EPrints are open source and designed to be easily customisable to your individual needs.
As well as installing the full EdShare suite it is also possible to augment other kinds of repository with EdShare's rich content features. These features include in-place previews, commenting, dynamic toolbox and flexible viewing and editing permissions",http://www.edshare.org.uk/,"https://www.facebook.com/ECSUoS
https://www.youtube.com/playlist?list=PLiOKB0fHoQ1mtlOQe31U432d0pZA0114h",GB,Southampton,Hampshire,University Road,SO17 1BJ,international@southampton.ac.uk,,,,,,,,,,,,,,,
I-Berry,The Academic Porthole,,"iBerry provides information and resources for online learners, researchers, educators and anyone else with an interest in adult education. iBerry is non-profit making with no commercial or institutional affiliation.",, http://iberry.com/,https://twitter.com/iBerry_,CC BY-NC (We authorize you to view and download copies of the information on this site only for non-profit use),,,en,"5, 6","02, 0532, 091, 0541, 0611, 05, 03",,-,-,-,-,-,-,United KiGBngdom,Malvern,Worcestershire,,,,,Do not seem to have a Provider,,,,,,,,,,,,,
ITSON repositorio de objetos de aprendizaje,OA,http://biblioteca.itson.mx/oa/nw_img/principal_r2_c1.jpg,"         
Actualmente, para la Educación Superior es importante que se planteen alternativas para la utilización de las Tecnologías de Información y Comunicación (TIC’s) dentro de los programas curriculares, con la creación de actividades multimedia para la enseñanza, conocidos con el nombre de Objeto de Aprendizaje (OA) en apoyo a la formación de sus estudiantes, haciendo énfasis en su capacidad para utilizarse una y otra vez, en cualquier contexto y sin necesidad de poseer requerimientos previos.",, http://biblioteca.itson.mx/oa/principal.htm,,"depends on the author, CC BY",,solicitudceve@itson.mx,es,3,"003, 01, 0313, 07, 0114, 041, 0415, 0715, 0541",,Instituto Tecnológico de Sonora,ITSON,http://www.brandsoftheworld.com/sites/default/files/styles/logo-thumbnail/public/0022/5736/brand.gif?itok=b3CGkxJU,"The Sonora Institute of Technology (ITSON) is an institution committed with social development; it has more than 18,000 students and experts that offer education services, research and development focused in the improvement of the well-being, self-sufficiency, health, and survival of the communities where it has presence.
ITSON was established in 1955 as a project of the community that was looking for the offering of new educational opportunities. The initial effort for establishing ITSON was headed by The Lions Club International, Ciudad Obregon Chapter.",http://www.itson.mx/Paginas/index.aspx,"https://www.facebook.com/pages/ITSON-Centro/214733861870435
https://twitter.com/itson
https://plus.google.com/101419720553635643604/posts
https://www.youtube.com/user/ITSONOFICIAL",MX,Ciudad Obregón,Sonora,"5 de Febrero 818 sur, Col. Centro",85000,,Teachers Guide,,,,,,,,,,,,,,
Jorum,,http://www.jorum.ac.uk/wp-content/themes/kube/img/logo-jorum-mobile.png,"The UK's largest repository for discovering and sharing Open Educational Resources for HE, FE and Skills",2002, http://www.jorum.ac.uk/,"https://www.facebook.com/Jorumupdate
https://twitter.com/JorumTeam
https://www.youtube.com/playlist?list=PL957AA992B8E76D22&feature=view_all
https://vimeo.com/jorum","Except where otherwise stated, the work of the page is licensed under CC BY-SA",, jorum@jisc.ac.uk,en,"5, 6, non formal","02, 04, 01, 07, 023, 05, 054, 0611, 091, 0911, 053, 03",,Jisc,,https://ux.jisc.ac.uk/ui/img/jisc-logo.png,"Jisc is a registered charity and declares itself a ""champion"" at the use of digital technologies in UK education and research",https://www.jisc.ac.uk/,"https://www.youtube.com/user/JISCmedia
https://www.facebook.com/jiscsocial
https://twitter.com/jisc",GB,London,,"Brettenham House, 5 Lancaster Place",WC2E7EN,customerservices@jisc.ac.uk,,,,,,,,,,,,,,,
Kursnavet,,,"Kursnavet är en lärresursbank på internet fritt tillgänglig för alla.
Kursnavet rymmer digitala lärresurser av gymnasiekurser som går att använda ett och ett eller tillsammans med andra. ",, http://www.kursnavet.se/,,"Kursnavet ist frei zugänglich für alle über das Internet. Die Inhalte des Kursnavet sind urheberrechtlich (copyright) geschützt. Kursnavets Inhalte dürfen ausschließlich für Bildungszwecke verwendet werden. Geben Sie immer die Quelle an und verweisen Sie gerne auf kursnavet.se.
Man hat kein Recht, für heruntergeladenen Lehrinhalte von Kursnavet hochzuladen. Mit dem Hochladen Ihrer eigenen Inhalte auf Kursnavet stimmen Sie einem kostenlosen Zugriffsrecht auf allen Veröffentlichungen zu Lehrzwecken an. Sie können nur Objekte auf Kursnavet.se hochladen, bei denen Sie selbst das Urheberrecht besitzen oder die Erlaubnis dazu haben.",,ulfsan@gmail.com,sv,"2, 3","0511, 0541, 023, 041",,Härnösands kommun,Härnösand,http://www.emmajohansson.com/wp-content/uploads/2007/08/H%C3%A4rn%C3%B6sands_logotyp.jpg,,http://www.harnosand.se/2.76396c6112aa7b11f9280003122.html,,SE,Härnösand,Västernorrlands län,,871 80,kommun@harnosand.se ,,,Svenska Riksorganisationen för Distansutbildning,SVERD,http://www.sverd.se/wp-content/uploads/2013/02/Sverd_logo_100.jpg,Swedish National Organization for Distance Education (Sverd) is a professional organization for all those involved in distance learning and flexible learning in Sweden.,http://www.sverd.se/,,Sweden,Härnösand,Västernorrlands län,,"Box 3033, 87103 Härnösand",kansliet@sverd.se,
La Flor (Laclo),Flor,http://laflor.laclo.org/images/logoFlor.png,,, http://laflor.laclo.org/,,,,,,,,,Ariadne Foundation,,http://www.agroknow.gr/agroknow/sites/default/files/networks/net4.jpg,The ARIADNE Foundation is a not-for-profit association.,http://www.ariadne-eu.org/,https://twitter.com/Ariadne_eu,BE,Leuven,,,,,,"Beta Site, didn't work properly, if you click on a resource, it sends you toBanco Internacional de Objetos Educacionais or couldn't open it at all",,,,,,,,,,,,,
OpenLearn Works,,http://www.open.edu/openlearnworks/theme/image.php/openlearnworks/theme/1443690258/openlearn_works_logo,"OpenLearn Works is an innovative leading open educational platform where individuals and organisations can publish their open content, open courses and resources. It is a Moodle platform and has tools for collaboration, reuse and remixing.",2006,http://www.open.edu/openlearnworks/,,"Except for third party materials and otherwise stated, content on the site is CC BY-NC-ND",You have to sign up to receive requested information,openlearnworks@open.ac.uk,en,"3, 4, 5, 6",,f28009b2-3b5e-11e5-8709-54ee7558c81f,,,,,,,,,,,,,,Searching for topics does not work 21.09.15,,,,,,,,,,,,,
LeMill,,http://lemill.net/images/logo_content.png,"Le Mill is an online community for 'finding, authoring and sharing' open educational resources (OER). Le Mill was developed by the LeMill team led by the Learning Environments Research Group of Media Lab at the University of Art and Design Helsinki, Finland (now part of Aalto University)",,http://lemill.net/,,,You have to sign up to receive requested information,,"cs, de, en, es, et, fi, fr, hu, ka, lt, pl, pt-br, ro, ru, se",,,,University of Art and Design Helsinki,Aalto University,,http://aaltofimedia5.aalto.fi/style2013/img/taik/aalto-logo-en-1.gif,http://arts.aalto.fi/en/,"https://www.facebook.com/pages/Aalto-University-School-of-Arts-Design-and-Architecture/306336389402777
https://twitter.com/aaltoarts
https://www.pinterest.com/helenahyvnen/aalto-university/
https://instagram.com/aaltouniversity/
https://www.youtube.com/user/aaltouniversity",FI,Helsinki,,Hämeentie 135 C,00560,,,"Website only works for a few seconds, was not able to open resources",,,,,,,,,,,,,
Matematica Mutimidia,M3,https://lh4.googleusercontent.com/-0zLzR5ePsQg/TWh5_KM_CnI/AAAAAAAABN8/UyFpAwTY4C4/s1600/M3.png,"É o portal principal da coleção M³ Matemática Multimídia, que contém recursos educacionais multimídia em formatos digitais desenvolvidos pela Unicamp com financiamento do FNDE, SED, MCT e MEC para o Ensino Médio de Matemática no Brasil.",2007, http://www.m3.mat.br/,,Not able to read,,samuel@ime.unicamp.br,pt,3,054,,Universidade Estadual de Campinas,UNICAMP,http://sites.ifi.unicamp.br/alegre/files/2011/07/unicamp_logo-267x300.jpg,"Unicamp is an independent and autonomous university in terms of its educational policies, but financially, the university is subordinated to the State Government of São Paulo that provides funds for its operation. Thus, financial resources are derived mainly from the State Government of Sao Paulo and also from national and international institutions that promove the development through education and research.",http://www.unicamp.br/unicamp/,,BR,"Cidade Universitária ""Zeferino Vaz"",Campinas",São Paulo,Barão Geraldo,CEP: 13083-970,,,,,,,,,,,,,,,,
Materialeplatformen,,,,,http://materialeplatform.emu.dk/materialer/index.jsp,,Not able to find in danish,,,,"0, 1, 2, 3, 4, 5, 6",,,"Ministeriet for Børn, Undervisning og Ligestilling",,http://www.uvm.dk/~/media/UVM/Billeder/Logoer/150707%20UVM_web_266x109.png,,,,DK,Copenhagen,Hovedstaden,"

Vester Voldgade 123",DK-1552,stil@stil.dk,,Content gratis and for purchase,,,,,,,,,,,,,
MathWorld,,,A free resource from Wolfram Research built with Mathematica technology,1995, http://mathworld.wolfram.com/,,"
Readers are encouraged to use the contents of these pages for education and enjoyment, but these pages may not be copied, mirrored, redistributed, printed, or reproduced in bulk without permission. Reproduction for commercial purposes is not permitted, nor is use of robots to create archival copies.
Limited use of material for academic research and teaching is permitted, providing conventional citation standards are followed. Access to the MathWorld website will be blocked to subnets violating these terms. Indiscriminant use of prefetching results in bandwidth degredation for other MathWorld users and may violate the above proscription against bulk downloading. Since excessive use of prefetching has resulted in extensive imposition of blocking, MathWorld now denies access to prefetching software and browsers. To re-enable access, you can simply turn off prefetching in your browser.
Contributions are welcome. All contributions will be reviewed for correctness and suitability, and may be edited for content and/or presentation. Material should be specific, concise, verifiable, and preferably useful and interesting. Every attempt will be made to recognize contributors for their assistance, and to identify contributed entries on the MathWorld website.
When making a submission, unless you request otherwise, you are granting non-exclusive permission to include contributed material (or edited versions thereof) in MathWorld, as well as in any derivative works in any medium, including but not limited to book form or CD-ROM as further indicated in the permission form. Please see the FAQ on contributing for additional details about the formatting and submission of contributed material.",,,,,,,,,,,,,GB,,,,,,,,,,,,,,,,,,,,
National Learning Network,nln,https://pbs.twimg.com/profile_images/578409033071243265/CSt4hHt9_400x400.png,"collect from anywhere, share with anyone (gather, craft, share, collaborate)",, http://www.nln.ac.uk/,"https://www.facebook.com/xtLearn
https://twitter.com/xtlearn","The text of this page (but not images, video or other media) is available for modification and reuse under the terms of the
Creative Commons Attribution-Sharealike 3.0 Unported License and the GNU Free Documentation License.",restriction: you have to sign up to be able to get the information,,en,"0, 1, 2, 3, 4, 5, 6","04, 023, 0222, 0313, 0541, 0314",,The Education & Training Foundation,ET-Foundation,http://et-foundation.co.uk/wp-content/uploads/2014/04/Logo-reversed-out.jpg,,http://www.et-foundation.co.uk/,"https://twitter.com/E_T_Foundation
https://www.youtube.com/channel/UCEKM_NnfNB-XPosOENe9uJg
https://www.linkedin.com/company/the-education-and-training-foundation
https://storify.com/E_T_Foundation",GB,London,London,"157-159 Buckingham Palace Road,",SW1W 9SP,enquiries@etfoundation.co.uk,,restriction: you have to sign up to be able to get the information,,,,,,,,,,,,,
National Science Digital Library,NSDL,http://ilmu.mobi/images/channels/nsdl-1.png,"The United States' National Science Digital Library (NSDL) is an open-access online digital library and collaborative network of disciplinary and grade-level focused education providers. NSDL's mission is to provide quality digital learning collections to the science, technology, engineering, and mathematics (STEM) education community, both formal and informal, institutional and individual. NSDL's collections are refined by a network of STEM educational and disciplinary professionals. Their work is based on user data, disciplinary knowledge, and participation in the evolution of digital resources as major elements of effective STEM learning.",2000, http://nsdl.org/,"https://www.facebook.com/OER-Commons-197344756972678/timeline/
https://twitter.com/oercommons"," A project created by ISKME. Except where otherwise noted, content on this site is licensed under a Creative Commons Attribution-NonCommercial-ShareAlike 3.0 License CC NC - SA,",some resources a only available for purchase,,English,"0, 1, 2, 3, 4, 5, 6","0611, 07, 01, 0222, 042, 0312, 03, 08, 054, 053, 0531, 0533, 05",,National Science Foundation,NSF,http://www.nsf.gov/images/logos/nsf4.jpg,"The National Science Foundation (NSF) is a United States government agency that supports fundamental research and education in all the non-medical fields of science and engineering. IWith an annual budget of about US$7.0 billion (fiscal year 2012), the NSF funds approximately 20% of all federally supported basic research conducted by the United States' colleges and universities.[1] In some fields, such as mathematics, computer science, economics and the social sciences, the NSF is the major source of federal backing.",http://www.nsf.gov/,"https://www.facebook.com/US.NSF
https://twitter.com/NSF
https://www.linkedin.com/company/national-science-foundation
https://www.youtube.com/user/VideosatNSF
https://www.flickr.com/photos/nsf_beta/
http://nationalsciencefoundation.tumblr.com/",US,Arlington,Virginia,4201 Wilson Boulevard,22230,webmaster@nsf.gov,,,,,,,,,,,,,,,
National Energy Education Development Project,NEED,http://www.need.org/images/logo.png,"The mission of the NEED Project is to promote an energy conscious and educated society by creating effective networks of students, educators, business, government and community leaders to design and deliver objective, multi-sided energy education programs.",1980,http://need.org,"https://www.facebook.com/NEEDProject
https://twitter.com/need_project
https://instagram.com/theneedproject/
https://www.pinterest.com/needproject/",,,info@need.org,,"0, 1, 2, Teacher's Guide","05, 0532",,,,,,,,,,,,,,,Did send an E-Mail to clarify who is the Provider,,,,,,,,,,,,,
Nasjonal digital læringsarena,NLDA,http://ndla.no/sites/default/files/images/ndla_svart_norsk.png,"Norwegian Digital Learning Arena (NDLA) (Norwegian: Nasjonal digital læringsarena) is a joint county enterprise offering open digital learning assets for upper secondary education. In addition to being a compilation of open educational resources (OER), NDLA provides a range of other online tools for sharing and cooperation. The legal liability for the joint county programme is carried by Hordaland County Council.",2007, http://ndla.no,"https://www.facebook.com/ndla.no
https://twitter.com/ndla_no
https://plus.google.com/+ndlano/posts
https://www.youtube.com/user/videoNDLA","CC BY-SA, CC BY-NC-ND, CC BY-NC-SA",,,no,"2, 3 ","023, 0222, 0541, 031, 0214, 09, 08, 103, 104, 0232, 0413, 0511, ",,Hordaland County Municipality,,http://www.hordaland.no/graphics/HFK_stor.png,"The main responsibilities of the county municipality includes the running of 46 upper secondary schools, with 17,000 pupils. It manages all the county roadways, public transport, dental care, culture, and cultural heritage sites in the county.",http://www.hordaland.no/,"https://www.facebook.com/hordaland
https://www.linkedin.com/company/hordaland-fylkeskommune
https://twitter.com/hordaland_no
https://www.flickr.com/photos/hordalandfk/sets/
https://www.youtube.com/user/Hordalandfk
https://instagram.com/hordaland_no/",NO,,,,5020,hfk@hfk.no,,,,,,,,,,,,,,,
OER Commons,,http://www.technapex.com/wp-content/uploads/2013/09/OER-logo.jpg,OER Commons is a freely accessible online library that allows teachers and others to search and discover open educational resources (OER) and other freely available instructional materials.,2007, http://oercommons.org/,"https://www.facebook.com/OER-Commons-197344756972678/timeline/
https://twitter.com/oercommons",CC BY-NC-SA,,info@oercommons.org,en,"1, 2, 3, informal education","073, 0611, 07, 0521, 091, 06, 02, 0222, 023, 0232, 0215, 0223, 0221, 04, 03, 0413, 0414, 081, 042, 0211, 0214, 01, 0511, 0541, 053, 03",,Institute for the Study of Knowledge Management in Education,ISKME,https://oercommons.s3.amazonaws.com/media/upload/landingpages/design-challenge/slides/08072013_ISKME-Logo-copy.png,"The Institute for the Study of Knowledge Management in Education (ISKME), is a 501(c)(3) non-profit organization founded in 2002. Located in Half Moon Bay, California, its mission is to help schools, colleges, and other educational institutions to gather and use data, share information, and make knowledge openly accessible to students, educators, and the public.",http://www.iskme.org/,"https://www.facebook.com/#!/group.php?gid=53333131798
https://twitter.com/iskme",US,Half Moon Bay,California,323 Harvard Ave,94019,,,,,,,,,,,,,,,,
OER Online Archive,,https://upload.wikimedia.org/wikipedia/commons/a/a7/Internet_Archive_logo_and_wordmark.png,"Internet Archive is a non-profit library of millions of free books, movies, software, music, and more.",1996, http://www.archive.org/,"https://www.facebook.com/internetnetarchive
https://twitter.com/internetarchive","Some of the content available through the Archive may be governed by local, national, and/or international laws and regulations, and your use of such content is solely at your own risk. You agree to abide by all applicable laws and regulations, including intellectual property laws, in connection with your use of the Archive. In particular, you certify that your use of any part of the Archive's Collections will be limited to noninfringing or fair use under copyright law. If a Creative Commons or other license has been declared for particular material on the Archive, to the extent you trust the declaration and declarer (which is rarely the Internet Archive), you may use the content according to the terms and conditions of the applicable license. In using the Archive's site, Collections, and/or services, you further agree (a) not to violate anyone's rights of privacy, (b) not to act in any way that might give rise to civil or criminal liability, (c) not to use or attempt to use another person's password, (d) not to collect or store personal data about anyone, (e) not to infringe any copyright, trademark, patent, or other proprietary rights of any person, (f) not to transmit or facilitate the transmission of unsolicited email (""spam""), (g) not to harass, threaten, or otherwise annoy anyone, and (h) not to act in any way that might be harmful to minors, including, without limitation, transmitting or facilitating the transmission of child pornography, which is prohibited by federal law and may be reported to the authorities should it be discovered by the Archive.",,info@archive.org,en,"0, 1, 2, 3, 4, 5, 6","0231-sco, 0231-baq, 0231-id",b2be35d0-78a1-11e5-81fb-001999ac7927,Internet Archive,,,,,,US,San Francisco,California,300 Funston Avenue,94118,,,,,,,,,,,,,,,,
Open Educational Resources for Typography,OERT,http://conceptdezain.com/blog/wp-content/uploads/2014/06/oert-600x400.jpg,"Open Educational Resources for Typography (OERT) is an open educational project available to everyone who wishes to broaden their knowledge of typography: students, teachers, or individuals interested in the subject. ",1994, http://www.oert.org/,"http://www.facebook.com/oert.org
http://twitter.com/OertOrg",CC BY-SA,,info@oert.org,"es, en","2, 3, 4 ",02,,,,,,,,,,,,,,Teachers Guide,Did send an E-Mail to find out who the Provider is (01.10.2015),,,,,,,,,,,,,
OpenLearnWare,OLW,http://www.e-learning.tu-darmstadt.de/media/elc/__relaunch/_logos/olw/olw_logo_support_120x0.png,Als Teil der weltweiten Bildungsinitiative für Open Educational Resources setzten sie sich mit OpenLearnWare für den freien Zugang und Austausch von Lernmaterialien ein.,2009, https://openlearnware.hrz.tu-darmstadt.de/,"https://twitter.com/openlearnware
https://github.com/olw","CC BY-SA, CC BY-NC-ND",,e-learning@hrz.tu-darmstadt.de,"de, en","5, 6","07, 073, 054, 053, 0312, 042, 0311, 1014, 0223, 0314, 003",,Technische Universität Darmstadt,tu-darmstadt,https://upload.wikimedia.org/wikipedia/de/archive/2/24/20100612200242!TU_Darmstadt_Logo.svg,"Die Technische Universität Darmstadt (kurz TU Darmstadt) ist die erste autonome Universität der Bundesrepublik Deutschland.[1] Mit fast 27.000 Studierenden und 4.500 Beschäftigten, davon ca. 300 Professorinnen und Professoren, zählt sie zu den mittelgroßen Universitäten in Deutschland und gehört dem Universitätsverbund der TU9 an. Seit 2005 ist sie als familienfreundliche Hochschule zertifiziert.",http://www.tu-darmstadt.de/,"https://www.facebook.com/tudarmstadt?fref=ts
https://twitter.com/TUDarmstadt",DE,Darmstadt,,Karolinenplatz 5,64289,presse@tu-darmstadt.de,,,,,,,,,,,,,,,
OpenMichigan,,http://open.umich.edu/sites/default/files/3654/Non-Editable/Open_michigan_sticker-v2.jpg,"Open.Michigan is a University of Michigan initiative that enables faculty, students, and others to share their educational resources and research with the global learning community.",2007, http://open.umich.edu/,"https://twitter.com/open_michigan
https://www.facebook.com/OpenMichigan-94137343500/timeline/
https://www.flickr.com/photos/openmichigan
https://www.youtube.com/user/openmichigan
http://de.slideshare.net/openmichigan/","C - all rights, CC BY, CC BY-NC, CC BY-SA, CC BY-NC-SA ",,open.michigan@umich.edu,en,"5, 6","02, 0731, 04, 0911, 01, 07, 06, 042, 0914, 0215, 0913, 0916, 091, 0312, 0923, ",,University of Michigan,Umich,http://vpcomm.umich.edu/assets/brand/home/logo.png,"The mission of the University of Michigan is to serve the people of Michigan and the world through preeminence in creating, communicating, preserving and applying knowledge, art, and academic values, and in developing leaders and citizens who will challenge the present and enrich the future.",http://umich.edu/,"https://www.facebook.com/universityofmichigan
https://twitter.com/umich
https://www.pinterest.com/uofmichigan/
http://umichstories.tumblr.com/
https://instagram.com/uofmichigan/
https://www.linkedin.com/edu/school?id=18633",US,Ann Arbor,MI,500 S. State Street,48109,info@umich.edu,,,,,,,,,,,,,,,
Organic.Edunet Federation,,http://www.ciard.info/sites/default/files/images/organic_edunet_v0_3.png,"Organic.Edunet is a learning portal which provides access to thousands of quality digital learning resources on organic agriculture, agroecology and other green topics, such as ecology, sustainability, biodiversity, environment and energy.",, http://www.organic-edunet.eu/,"https://www.facebook.com/organic.edunet
https://twitter.com/OrganicEdunet",CC BY-SA,,info@organic-edunet.eu,"ar, en, et, fr, de, el, it, lv, pl, ru, es, tr","2, 3, 5, 6","08, 051, 052, 0231-tr",,Europe's Information Society Thematic Portal,ICT PSP,http://ec.europa.eu/information_society/activities/ict_psp/library/dissemination/img/ict_psp_logo.jpg,"The ICT Policy Support Programme (ICT PSP) is one of the three specific programmes of The Competitiveness and Innovation framework Programme (CIP) and runs for the years 2007-2013.
The ICT PSP aims at stimulating smart sustainable and inclusive growth by accelerating the wider uptake and best use of innovative digital technologies and content by citizens, governments and businesses.
It provides EU funding to support the realisation of the Digital agenda for Europe.",http://ec.europa.eu/information_society/activities/ict_psp/index_en.htm,,BE,Brussels,,European Commission - Directorate-General Information Society and Media,1049,cnect-ict-psp@ec.europa.eu,,Organic.Edunet is partially funded under the ICT Policy Support Programme (ICT PSP) as part of the Competitiveness and Innovation Framework Programme by the European Community,,,,,,,,,,,,,
Pearson Copyleft,,,"Copyleft é um site criado pela Pearson Education do Brasil para promover o amplo acesso a obras educacionais ou de apoio ao aprendizado, não se restringindo a textos mas também abrangendo objetos de aprendizado nos formatos suportados. ",, http://www.copyleftpearson.com.br,,"Este é um espaço livre, aberto para debates e troca de opiniões e informações entre professores, estudantes, estudiosos, pesquisadores e quem dele queira participar, integrando uma comunidade acadêmica independente, apoiado pelos recursos técnicos disponibilizados pela Pearson Education. 
Esta comunidade não tem fins lucrativos e, portanto, os conteúdos não se destinam ao comércio. Respeitando a legislação autoral vigente, permite a colocação dos textos à disposição de todos, nos termos aqui estabelecidos, 
As regras aqui instituídas visam a garantir, a todos, a livre participação nos debates, o aproveitamento dos textos e sua livre reprodução e circulação, especialmente no campo das ciências.",It is necessary to sign in before it is possible to download the resources.,,pt,"1, 2, 3, Teachers Guide","0531, 0222, 01, ",,Pearson,,http://www.britishcouncil.es/sites/britishcouncil.es/files/styles/bc-landscape-630x354/public/pearson-logo-630x354.jpg?itok=KO8aYlJ4,"A Pearson, há 150 anos no mercado, é líder em educação no mundo e está presente em mais de 80 países com 40 mil colaboradores.",https://br.pearson.com/,"https://www.facebook.com/PearsonBrasil
https://twitter.com/PearsonBrasil
https://www.linkedin.com/company/pearson-brasil
https://www.youtube.com/user/pearsondobrasil",BR,São Paulo,,"Rua Nelson Francisco, 26 - Limão",SP CEP: 02712-100,elt.br@pearson.com,,,,,,,,,,,,,,,
Physics Education Technology,Phet,https://donatenow.networkforgood.org/static-resources/skin/19748/images/logo.png,"PhET provides fun, free, interactive, research-based science and mathematics simulations. They extensively test and evaluate each simulation to ensure educational effectiveness. ",, http://phet.colorado.edu/en/,"https://www.facebook.com/PhETSims/timeline/
https://www.youtube.com/channel/UCMRZ0-ci4ifGBF1bJvrcDRQ
https://twitter.com/PhETSims
https://www.pinterest.com/PhETSims/"," All simulations available at http://phet.colorado.edu are open educational resources available under the Creative Commons Attribution license (CC-BY).

Permission is granted to freely use, share, or redistribute PhET sims under the CC-BY license. The following attribution is required:

    PhET Interactive Simulations
    University of Colorado Boulder
    http://phet.colorado.edu ",,phethelp@colorado.edu,"en, ar, bs, zh, cs, da, nl, et, fi, fr, gl, ka, de, el, hu, in, it, ja, ko, ku, mk, mr, no, fa, pt, ro, sr, es, th, tr, uk, vi","0, 1, 2, 3, 4, 5, 6","05, 0231-baq, 0231-fur, 0231-cy",,University of Colorado Boulder,"UCB, CU-Boulder, Colorado",http://och.colorado.edu/sites/default/files/imce/bb%20logo.jpg,"The University of Colorado Boulder is a public research university located in Boulder, Colorado, United States. It is the flagship university of the University of Colorado system and was founded five months before Colorado was admitted to the union in 1876.",http://www.colorado.edu/,"https://www.facebook.com/cuboulder
https://twitter.com/cuboulder
https://www.youtube.com/cuboulder
https://www.linkedin.com/company/university-of-colorado-boulder
https://instagram.com/cuboulder/
https://plus.google.com/+cuboulder/posts
https://www.pinterest.com/cuboulder/",US,Boulder,CO,"1800 Grant Street, Suite 800",35 UCA,,,Contact University of Colorado: Office of Academic Affairs,,,,,,,,,,,,,
Portal das Escolas,,https://portalcolaborativo.min-edu.pt/imageserver/plumtree/portal/PortalEscola/images/logo.png,"O Portal das Escolas é o sítio de referência das escolas e constitui a maior rede colaborativa em linha da educação em Portugal.
O Portal das Escolas destina-se às comunidades educativas da Educação Pré-Escolar e dos ensinos Básico e Secundário, designadamente a docentes, a alunos, a pais e a encarregados de educação e a não docentes.",2011, https://www.portaldasescolas.pt/,,,,,pt,"0, 1, 2, 3, teachers","023, 0611, 07, 05, 042, 0312, 0232, 02, 0311, 01, 1014, 0222, 051, 054, 0314",,"Governo de Portugal, O Portal das Escolas é o sítio de referência das escolas e constitui a maior rede colaborativa em linha da educação em Portugal.
O Portal das Escolas destina-se às comunidades educativas da Educação Pré-Escolar e dos ensinos Básico e Secundário, designadamente a docentes, a alunos, a pais e a encarregados de educação e a não docentes.",,http://www.dge.mec.pt/sites/all/themes/dge/images/gov.png,,http://www.portugal.gov.pt/pt/os-ministerios/ministerio-da-educacao-e-ciencia.aspx,https://twitter.com/govpt,PT,Lisboa,,Av. 5 de Outubro,,,,,Quadro de referência estratégico nacional,QREN,http://www.qren.pt/images/qren.png,O Quadro de Referência Estratégico Nacional (QREN) constitui o enquadramento para a aplicação da política comunitária de coesão económica e social em Portugal no período 2007-2013.,http://www.qren.pt/np4/home,,Portugal,Lisboa,Lisboa,"Avenida 5 de Outubro, 153",1050-053,,
Recursos Educacionais Abertos Brasil,REA,http://blogs.odiario.com/carlossica/wp-content/uploads/sites/90/2012/05/rea.jpg,"A Comunidade REA Brasil é composta de educadores, cientistas, engenheiros, profissionais de TICs, advogados, e toda e qualquer pessoa que acredita em educação aberta e recursos educacionais abertos. Junte-se a esta comunidade que vem de todo o Brasil na busca e construção de uma educação mais democrática, inclusiva e mais próxima a cultura colaborativa da Internet.",2008, http://rea.net.br/site/,"https://www.facebook.com/groups/reabrasil/
https://twitter.com/reanetbr
https://www.flickr.com/photos/reanetbr/
https://www.youtube.com/user/reabrasil1
https://groups.google.com/forum/#!forum/rea-lista
http://www.slideshare.net/reabr","CC BY, CC BY-NC-ND ",,reabrasil2011@gmail.com,pt,"0, 1, 2, 3, 4, 5, 6",,,Instituto Educadigital,IED,http://www.educadigital.org.br/en/wp-content/uploads/2014/07/logo-ied-1.png,"O Instituto Educadigital (IED) é uma organização sem fins lucrativos, referência mundial em projetos inovadores de uso pedagógico de tecnologias digitais, dentro e fora das escolas. Trabalha em parceria com escolas, organizações sociais, empresariais e governamentais na concepção, execução e desenvolvimento de projetos de formação de crianças, jovens e adultos.
",http://www.educadigital.org.br/site/,"https://www.facebook.com/institutoeducadigital
https://twitter.com/ieducadigital
https://www.youtube.com/user/ieducadigital
https://www.flickr.com/photos/ieducadigital/
https://vimeo.com/educadigital",BR,São Paulo,,"R. Eng. Francisco Azevedo, 216 - Vila Anglo Brasileira","SP, 05030-010",contato@educadigital.org.br,,,,,,,,,,,,,,,
Restore,,,The delivery of technology-enhanced learning is of increasing relevance to the training and development of researchers in the social sciences.,, http://www.restore.ac.uk,,CC BY-NC-SA ,,info@restore.ac.uk,en,"5,6","0611, 0413",,University of Southampton,,https://www.ocs.soton.ac.uk/public/site/images/pileio/Soton_University_Logo.png,They are a research intensive university and a founding member of the prestigious Russell Group.,http://www.southampton.ac.uk/,,GB,Southampton,Hampshire,University Rd.,SO17 1BJ,,,,,,,,,,,,,,,,
Repositorio de Objetivos Digitales y Aprendizaje,RODA,,"RODA reúne las colecciones digitales de archivos, bibliotecas y museos gestionados por la Consejería de Educación y Cultura, de acuerdo con la Iniciativa de Archivos Abiertos (OAI-PMH) que promueve la Unión Europea. Se constituye como principal proveedor de contenidos de las colecciones digitales extremeñas a los agregadores/recolectores de contenidos Hispana y Europeana. ",, http://roda.culturaextremadura.com/,,"El Gobierno de Extremadura es titular de los contenidos, copias digitales y metadatos integrados en este repositorio, liberados bajo licencia Creative Commons.",could not open the material,roda@gobex.es,es,"0, 1, 2, 3, 4, 5, 6",no arrangement of subjects,,Junta de Extremadura,,http://www.gobex.es/filescms/web/uploaded_images/layout/logo_JuntadeExtremadura.png,,http://www.gobex.es/comunicacion/noticia?idPub=17500#.Vg1I_M5Gj6c,"https://twitter.com/Junta_Ex
https://www.facebook.com/JuntaDeExtremadura
https://www.linkedin.com/company/gobierno-de-extremadura
https://plus.google.com/103949937139516520138/posts
https://www.youtube.com/user/gobexsocial
https://www.flickr.com/photos/gobiernoextremadura/
http://gobiernoextremadura.tumblr.com/
http://de.slideshare.net/admgobex",ES,Mérida,Badajoz,"Plaza del Rastro, s/n ",06800,,,unexpected error has occured or the access was prohibited (El acceso al recurso especificado () ha sido prohibido.),,,,,,,,,,,,,
RVP Metodicky Portal,,http://www.moderni-dejiny.cz/PublicFiles/UserFiles/image/Logo_clanek/205x132_RVP.jpg,"Metodický portál RVP.CZ nabízí svým uživatelům tematická setkání ve virtuálním prostředí. Mají formu webinářů, webových seminářů. Konají se (dle přání uživatelů) obvykle ve večerních hodinách. ",, http://dum.rvp.cz/index.html,"https://www.facebook.com/metodicky.portal/timeline/
https://twitter.com/Metodickyportal
https://plus.google.com/u/0/+rvpcz/posts",,,,,,,,,,,,,,CZ,,,,,,,not able to understand czech,,,,,,,,,,,,,
Temoa,,,Temoa is a knowledge hub that eases a public and multilingual catalog of Open Educational Resources (OER) which aims to support the education community to find those resources and materials that meet their needs for teaching and learning through a specialized and collaborative search system and social tools.,2008, http://www.temoa.info,,,,,"en, es",,"021, 073, 04, 0311, 07, 09, 0222, 03, 023, 0232, 042, 0312, 0221, 0223, 03, 05",,Tecnológico de Monterrey,,http://vignette3.wikia.nocookie.net/logopedia/images/b/b7/Tecnol%C3%B3gico_de_Monterrey_old.svg/revision/latest/scale-to-width-down/640?cb=20140916190339,,http://www.itesm.mx/wps/portal?WCM_GLOBAL_CONTEXT=,"https://twitter.com/TecdeMonterrey
https://www.facebook.com/TecdeMonterrey
https://plus.google.com/u/0/+TecdeMonterrey/posts
https://www.youtube.com/user/ITESMedu
https://www.linkedin.com/company/itesm",MX,Monterrey,Nuevo León,Ave. Eugenio Garza Sada 2501 Sur Col. Tecnológico,C.P. 64849,admisiones.mty@itesm.mx,,,,,,,,,,,,,,,
National Digital Learning Resources Network,NDLRN,http://www.ndlrn.edu.au/images/home_page/ndlrnHeader.jpg,The National Digital Learning Resources Network (NDLRN) is a technical infrastructure that connects Australian schools to enable the distribution and sharing of digital resources through education portals. The Network is the outcome of initiatives of the Australian Government and the state and territory governments.,2012, http://www.ndlrn.edu.au/default.asp,,,It is only possible to get to the repository by Scootle or using the state or territory portals of the school.,ndlrn@esa.edu.au,en,,,,Education Services Australia Limited,ESA,http://www.teachingacenglish.edu.au/common/images/footer_logo.png,"Education Services Australia (ESA) is a national, not-for-profit company owned by all Australian education ministers. The company was established to support delivery of national priorities and initiatives in the schools, training and Higher Education sectors.",http://www.esa.edu.au/,"https://twitter.com/EdServAus
https://www.facebook.com/EdServAus/timeline/
https://www.linkedin.com/company/education-services-australia
https://plus.google.com/u/0/100145772552506651409/posts",AU,Melbourne,Victoria,Level 5 440 Collins Street,3000,info@esa.edu.au,,It is only possible to get to the repository by Scootle or using the state or territory portals of the school.,,,,,,,,,,,,,
 The world lecture project,wlp,http://www.world-lecture-project.org/img/logo_wlp.png,"(wlp)° is the central platform for delivering academic videos from faculties worldwide. You can find videos according to various criteria: theme, faculty, country, language, institution and others.",2005, http://www.world-lecture-project.org/,,,,info@world-lecture-project.org,"en, de","5, 6","0313, 06, 0312, 022, 0223, 0721, 0311",,?,,,,,,DE,,,,,,,,,,,,,,,,,,,,
UNITRACC,,http://www.aqwa-academy.net/++resource++unitracc-images/logo-unitracc.png,"On this independent platform they offer you and their clients free and unique information as well as an exclusive online academy on the subjects of pipeline construction, pipeline maintenance and pipeline management. ",, http://www.unitracc.com/,,,The content is only accessible for registered users.,,"en, de, es","4, 5, 6",07,,Stein & Partner Germany,,http://www.stein.de/images/logo-stein-und-partner.png,"Die Online-Informationsplattform zur Inspektion und Sanierung von Grundstücksentwässerungsleitungen ist eine auf Ihre Belange abgestimmte, ausführliche Informationsquelle, die Sie als Bürger und Grundstückseigentümer mit allen wichtigen Hintergrundinformationen versorgt und einen Überblick über die auf Sie zukommenden Aufgaben und mögliche Lösungen vermittelt.",http://www.stein.de/index-en.html,,DE,Bochum,,Konrad-Zuse-Str. 6 ,44801,office@stein.de,,Failed to create your account: we were unable to send instructions for setting a password to your email address,,,,,,,,,,,,,
University of Leicester OER Repository,,http://wildfirecomms-images.co.uk/img/low_uol-logo-full-colour-2-1443020162.jpg,The repository holds the University of Leicester's contribution to the wealth of Open Educational  Resources (OERs) already available via the Internet.,, http://www2.le.ac.uk/projects/oer,,CC BY-NC-SA,,beyond.distance@le.ac.uk,en,"5, 6","022, 042,01, 0211, 0312, 0313, 03",,University of Leicester,,https://le.ac.uk/~/media/images/ul-site-images/uollogo.ashx?h=60&w=181&la=en&hash=70953D1FD97AE7FAE3580FC0D673ED162EA46AA5,,,"https://www.facebook.com/UniofLeicester/
https://twitter.com/uniofleicester
https://www.youtube.com/user/UniversityLeicester
https://www.flickr.com/photos/universityleicester/
https://plus.google.com/117567742134339880689/posts
https://soundcloud.com/university-of-leicester/sets",GB,Leicester,,University Road,LE1 7RH,,,,,,,,,,,,,,,,
Wikiwijs,,https://www.kennisnet.nl/fileadmin/kennisnet/_processed_/csm_logo-wikiwijsleermiddelenplein_43e717e69a.png,"Wikiwijsleermiddelenplein is een gezamenlijk initiatief van Kennisnet, de Open Universiteit en SLO. Het platform biedt een mix van open en gesloten lesmateriaal, informatie over lesmethodes en professionaliseringsmateriaal over het gebruik en de toepassing van leermiddelen. ",2013, http://www.wikiwijs.nl/,"https://twitter.com/WWLMP
https://www.linkedin.com/grp/home?gid=2329154",,,,nl,"0, 1","01, 021, 0313, 0232, 0541, 031, 023, 07",,SLO Nationaal Expertisecentrum voor Leerplanontwikkeling,SLO,https://fbcdn-profile-a.akamaihd.net/hprofile-ak-xaf1/v/t1.0-1/p160x160/392295_258782664179488_1640364040_n.jpg?oh=74ee8e3da9532cb24b3c01440cb3802f&oe=56617BFA&__gda__=1452250615_c1fb706379faf052545263588d1217b9,"Eén overzichtelijke website waarop leraren en schoolleiders eenvoudig allerlei actuele, relevante en interessante inhoudelijke informatie over een bepaald vak of leergebied vinden, dat is de gedachte achter de vakportalen die SLO momenteel ontwikkelt.",http://www.slo.nl/,,NL,Enschede,Overijssel,Piet Heinstraat 12,7511 JE,info@slo.nl,,"Wikiwijsleermiddelenplein is het resultaat van het samengaan van twee platforms voor leermiddelen, namelijk Wikiwijs en Leermiddelenplein. In opdracht van het ministerie van Onderwijs, Cultuur en Wetenschap realiseren Kennisnet en de Open Universiteit het programma Wikiwijs om het gebruik en de ontwikkeling van open leermiddelen in het onderwijs te stimuleren én te vergemakkelijken. SLO lanceerde in 2003 leermiddelenplein.nl. Een portal met uiteenlopende informatie over lesmethodes die in Nederland worden uitgegeven. ",Open Universiteit Nederland,OU,http://trailerproject.eu/files/2011/11/logo-OpenUniversiteit.jpg,"De Open Universiteit heeft als publiek bekostigde universiteit in het hoger onderwijsbestel een bijzondere opdracht, namelijk het ontwikkelen en aanbieden van open hoger afstandsonderwijs. Onderwijs dat een alternatief is voor het meer traditionele hoger onderwijs, dat daar een noodzakelijke aanvulling op vormt en waarmee het in toenemende mate verweven raakt. De ontwikkeltaak van de OU is gestoeld op eigen onderzoek en op de eigen onderwijspraktijk, maar is gericht op vernieuwing en toegankelijkheid van het hoger onderwijs als geheel.",https://www.ou.nl/,,The Netherlands,Heerlen,Limburg,Valkenburgerweg 177,6419 AT Heerlen,heerlen@ou.nl,
Wisconsin Online Resource Center,Wisc-Online,https://www.wisc-online.com/images/cowFinalLarge.png,"The site, a collaborative effort of the 16 colleges in the Wisconsin Technical College System (WTCS), was designed to use a digital library of learning objects to improve learning for students at WTCS colleges -- it just so happened the rest of the world came along for the ride.",2000, http://www.wisc-online.com/,"https://www.facebook.com/WiscOnline
https://plus.google.com/113467492981023674254/posts
https://twitter.com/WiscOnline
https://www.youtube.com/user/WiscOnlineOrg","CC BY, CC BY-NC",,,en,"3, 4, 5, 6","0611, 07, 022, 072, 0312, 09, 05, 0532",,Wisconsin Technical College System,WTCS,http://www.chairacademy.com/_images/sponsor_logos/WTCS_LogoSet.jpg,Wisconsin’s technical colleges have outstanding faculty with relevant experience in their fields that makes career programs meaningful for students. They also bring a variety of life experiences and community involvement to their teaching. ,http://www.wistechcolleges.org/,"https://www.facebook.com/WisTechColleges
https://twitter.com/WisTechColleges
https://plus.google.com/+WistechcollegesOrg/videos
https://www.youtube.com/user/WisTechColleges",US,Madison,WI,"Wisconsin Technical College System Office
4622 University Avenue ",53705,,,,,,,,,,,,,,,,
World History Sources,,https://chnm.gmu.edu/worldhistorysources/Resources/whslogolrg.gif,"World History teachers face many challenges to incorporating primary sources in their teaching—the pressures of coverage in survey courses, the lack of available materials, and inadequate training in dealing with unfamiliar sources from a range of cultures. World History Sources responds to these challenges (as well as the new opportunities offered by the Internet) by creating a website to help world history teachers and students locate, analyze, and learn from online primary sources and to further their understanding of the complex nature of world history, especially the issues of cultural contact and globalization. ",2003, http://chnm.gmu.edu/worldhistorysources/index.html,,CC BY-SA ,,whm@chnm.gmu.edu,en,"2, 3, 4, 5, 6",0222,,Roy Rosenzweig Center for History and New Media,RRCHNM,http://americanhistorynow.org/wp-content/uploads/2013/12/chnm-logo1.png,"RRCHNM uses digital media and technology to preserve and present history online, transform scholarship across the humanities, and advance historical education and understanding. Each year RRCHNM’s many project websites receive over 20 million visitors, and over a million people rely on its digital tools to teach, learn, and conduct research.",http://chnm.gmu.edu/,,US,Fairfax,Virginia,"Roy Rosenzweig Center for History and New Media
Department of History and Art History
George Mason University
4400 University Drive, MSN 1E7",22030,chnm@gmu.edu,,,,,,,,,,,,,,,
Xerte Public E-learning ReposiTory,XPERT,https://www.nottingham.ac.uk/xpert/images/logo.gif,XPERT project is a JISC funded rapid innovation project to explore the potential of delivering and supporting a distributed repository of e-learning resources created and seamlessly published through the open source e-learning development tool called Xerte Online Toolkits. The aim of XPERT is to progress the vision of a distributed architecture of e-learning resources for sharing and re-use. ,2009, http://www.nottingham.ac.uk/xpert/,,"CC BY-NC-SA, Copyright",,xpert@nottingham.ac.uk,en,"5, 6","01, 03, 022, 0312, 07, 0232, 0222, 041, 0541, 021, 0221, 023, 0231-hr, 0231-da, 0231-nl, 0231-en, 0231-fr, 0231-de, 0231-hu, 0231-it, 0231-ja, 0231-pt, 0231-ru. 0231-es, 0231-se",706aa724-77eb-11e5-9f9f-c48e8ff4ea31,The University of Nottingham,,http://eprints.nottingham.ac.uk/images/blank.gif,"The University of Nottingham is a public research university based in Nottingham, Nottinghamshire, England, United Kingdom. It was founded as University College Nottingham in 1881 and was granted a Royal Charter in 1948.",https://www.nottingham.ac.uk/index.aspx,"https://www.facebook.com/TheUniofNottingham
https://twitter.com/UniofNottingham
https://www.youtube.com/user/NottmUniversity
https://www.linkedin.com/company/university-of-nottingham/
http://uniofnottingham.tumblr.com/
https://instagram.com/uniofnottingham/
http://weibo.com/uoneao
http://vk.com/uniofnottingham",GB,Notthingham,East Midlands,University Park,NG7 2RD,international-office@nottingham.ac.uk,,Some of the resources could not be opened,,,,,,,,,,,,,
,,,,,,,,,,,,,,,,,,,,,,,,,,,,,,,,,,,,,,,,
,,,,,,,,,,,,,,,,,,,,,,,,,,,,,,,,,,,,,,,,
,,,,,,,,,,,,,,,,,,,,,,,,,,,,,,,,,,,,,,,,
,,,,,,,,,,,,,,,,,,,,,,,,,,,,,,,,,,,,,,,,
,,,,,,,,,,,,,,,,,,,,,,,,,,,,,,,,,,,,,,,,
,,,,,,,,,,,,,,,,,,,,,,,,,,,,,,,,,,,,,,,,
,,,,,,,,,,,,,,,,,,,,,,,,,,,,,,,,,,,,,,,,
,,,,,,,,,,,, ,,,,,,,,,,,,,,,,,,,,,,,,,,,,